PERSEUS-M1              
1 40039U 14033AF  26182.82140978  .00001284  00000+0  12077-3 0  9999
2 40039  97.9648 127.1941 0010068 246.4400 113.5763 14.95680439652829
POLYITAN-1              
1 40042U 14033AJ  26182.79921080  .00023270  00000+0  71283-3 0  9993
2 40042  98.0933 210.4473 0008748 101.4445 258.7779 15.33780662655834
TIGRISAT                
1 40043U 14033AK  26182.93785046  .00001880  00000+0  22091-3 0  9996
2 40043  97.7849 332.6130 0049755  27.7831 332.6026 14.85214693647814
AEROCUBE 6A             
1 40045U 14033AM  26182.91760969  .00005855  00000+0  49069-3 0  9993
2 40045  97.7228 349.7113 0037805 326.6068  33.2770 14.98234218648824
AEROCUBE 6B             
1 40046U 14033AN  26182.70542533  .00005549  00000+0  44802-3 0  9996
2 40046  97.7224 349.3243 0037782 318.1729  41.6608 14.99693914648933
CANX-4                  
1 40055U 14034C   26182.47249023  .00000953  00000+0  12937-3 0  9997
2 40055  98.3102  58.3088 0012090 330.9197  29.1340 14.81290157646648
CANX-5                  
1 40056U 14034D   26182.94359674  .00000971  00000+0  13164-3 0  9997
2 40056  98.3104  58.8416 0012061 329.5580  30.4930 14.81308526637526
UKUBE-1                 
1 40074U 14037F   26182.84378563  .00009620  00000+0  53717-3 0  9995
2 40074  98.4233 187.6577 0003169 109.9399 250.2171 15.13775386650775
BRITE-PL2 (HEWELIUSZ)   
1 40119U 14049B   26182.90090231  .00001755  00000+0  16717-3 0  9998
2 40119  97.9112 295.0154 0015113  63.6454 296.6316 14.94646982643640
AEROCUBE 5C             
1 40965U 15058B   26182.51987638  .00002403  00000+0  21792-3 0  9991
2 40965  64.7653 218.0001 0131467  57.6805 303.6958 14.91511742367793
AEROCUBE 7              
1 40966U 15058C   26182.74260304  .00004194  00000+0  33697-3 0  9997
2 40966  64.7601 199.2220 0121205  55.9428 305.3122 14.95812952368133
FOX-1A (AO-85)          
1 40967U 15058D   26182.57211453  .00002259  00000+0  20846-3 0  9992
2 40967  64.7738 234.2784 0131363  51.0040 310.2684 14.91028580115717
SINOD-D 1               
1 40968U 15058E   26182.78565810  .00003745  00000+0  30186-3 0  9994
2 40968  64.7729 213.1931 0120032  47.3291 313.7860 14.95991607118849
SNAP-3 ALICE            
1 40970U 15058G   26182.90062591  .00155946  00000+0  15962-2 0  9994
2 40970  64.7497  52.9372 0023784   0.3853 359.7308 15.63913387119181
LMRST-SAT               
1 40971U 15058H   26182.46401465  .00002186  00000+0  20349-3 0  9996
2 40971  64.7744 230.9794 0132935  53.0698 308.2503 14.90644908115680
SNAP-3 EDDIE            
1 40972U 15058J   26182.94302398  .00157524  00000+0  15350-2 0  9997
2 40972  64.7411  43.4040 0024439   3.5304 356.6012 15.65124102121339
PROPCUBE 3              
1 40973U 15058K   26182.79911040  .00003312  00000+0  27761-3 0  9996
2 40973  64.7665 206.8801 0124898  54.1655 307.0985 14.94332506116986
BISONSAT                
1 40974U 15058L   26182.93818392  .00019375  00000+0  91535-3 0  9995
2 40974  64.7580 125.9389 0080738  41.2150 319.5031 15.16591546117859
SNAP-3 JIMI             
1 40975U 15058M   26182.96685144  .00007997  00000+0  54257-3 0  9993
2 40975  64.7632 173.0049 0106995  49.4564 311.5810 15.02451320116449
PROPCUBE 1 (FLORA)      
1 40976U 15058N   26182.90210063  .00002102  00000+0  20400-3 0  9998
2 40976  64.7740 249.6293 0131590  55.1897 306.1512 14.89280394118450
SINOD-D 3               
1 40977U 15058P   26182.56538395  .00003082  00000+0  26394-3 0  9998
2 40977  64.7709 230.9185 0120108  52.4313 308.7637 14.94093914116905
HORYU-4                 
1 41340U 16012D   26182.79199294  .04204222 -38650-5  11151-2 0  9996
2 41340  30.9791 330.1929 0008659 346.1826  13.8606 16.27112331573161
RAVAN                   
1 41849U 16067B   26182.13348233  .00076979  00000+0  10967-2 0  9994
2 41849  97.9870  73.3297 0002065 331.4556  28.6583 15.56066980529867
CELTEE 1                
1 41850U 16067C   26182.88980829  .00006116  00000+0  28895-3 0  9997
2 41850  98.0651  50.4594 0001762 125.7705 234.3693 15.19825617528111
OPTICUBE 04             
1 41851U 16067D   26182.85964824  .00002709  00000+0  17191-3 0  9993
2 41851  98.0684  35.9081 0016950  70.1589 290.1464 15.09724177527387
AEROCUBE 8D             
1 41852U 16067E   26182.46447911  .00009033  00000+0  36944-3 0  9998
2 41852  98.0659  53.7221 0005021  89.6890 270.4921 15.24595526528247
AEROCUBE 8C             
1 41853U 16067F   26182.35587173  .00010093  00000+0  40921-3 0  9990
2 41853  98.0534  50.8147 0005644  28.9587 331.1961 15.24848091528220
CORVUS BC2              
1 42846U 17042X   26182.94187456  .00003853  00000+0  26509-3 0  9994
2 42846  97.4073 343.7190 0014146  64.8133 295.4560 15.06385064489284
CORVUS BC1              
1 42847U 17042Y   26182.93485881  .00004409  00000+0  30154-3 0  9996
2 42847  97.4109 344.5357 0012597  43.3314 316.8902 15.06552379489317
MAKERSAT 0              
1 43016U 17073D   26182.74249883  .00021095  00000+0  56439-3 0  9992
2 43016  97.4602  65.3778 0104893 220.3477 138.9950 15.32570583468697
