OBJECT_NAME,OBJECT_ID,EPOCH,MEAN_MOTION,ECCENTRICITY,INCLINATION,RA_OF_ASC_NODE,ARG_OF_PERICENTER,MEAN_ANOMALY,EPHEMERIS_TYPE,CLASSIFICATION_TYPE,NORAD_CAT_ID,ELEMENT_SET_NO,REV_AT_EPOCH,BSTAR,MEAN_MOTION_DOT,MEAN_MOTION_DDOT
PERSEUS-M1,2014-033AF,2026-07-01T19:42:49.804992,14.95680439,.00100681,97.9648,127.1941,246.4400,113.5763,0,U,40039,999,65282,.12076719E-3,.1284E-4,0
POLYITAN-1,2014-033AJ,2026-07-01T19:10:51.813120,15.33780662,.00087487,98.0933,210.4473,101.4445,258.7779,0,U,40042,999,65583,.71283433E-3,.2327E-3,0
TIGRISAT,2014-033AK,2026-07-01T22:30:30.279744,14.85214693,.00497559,97.7849,332.6130,27.7831,332.6026,0,U,40043,999,64781,.22090931E-3,.188E-4,0
AEROCUBE 6A,2014-033AM,2026-07-01T22:01:21.477216,14.98234218,.00378051,97.7228,349.7113,326.6068,33.2770,0,U,40045,999,64882,.49068829E-3,.5855E-4,0
AEROCUBE 6B,2014-033AN,2026-07-01T16:55:48.748512,14.99693914,.00377826,97.7224,349.3243,318.1729,41.6608,0,U,40046,999,64893,.44801605E-3,.5549E-4,0
CANX-4,2014-034C,2026-07-01T11:20:23.155872,14.81290157,.00120902,98.3102,58.3088,330.9197,29.1340,0,U,40055,999,64664,.1293694E-3,.953E-5,0
CANX-5,2014-034D,2026-07-01T22:38:46.758336,14.81308526,.0012061,98.3104,58.8416,329.5580,30.4930,0,U,40056,999,63752,.13164236E-3,.971E-5,0
UKUBE-1,2014-037F,2026-07-01T20:15:03.078432,15.13775386,.00031695,98.4233,187.6577,109.9399,250.2171,0,U,40074,999,65077,.53717494E-3,.962E-4,0
BRITE-PL2 (HEWELIUSZ),2014-049B,2026-07-01T21:37:17.959584,14.94646982,.00151131,97.9112,295.0154,63.6454,296.6316,0,U,40119,999,64364,.1671651E-3,.1755E-4,0
AEROCUBE 5C,2015-058B,2026-07-01T12:28:37.319232,14.91511742,.01314673,64.7653,218.0001,57.6805,303.6958,0,U,40965,999,36779,.21792178E-3,.2403E-4,0
AEROCUBE 7,2015-058C,2026-07-01T17:49:20.902656,14.95812952,.0121205,64.7601,199.2220,55.9428,305.3122,0,U,40966,999,36813,.33697469E-3,.4194E-4,0
FOX-1A (AO-85),2015-058D,2026-07-01T13:43:50.695392,14.91028580,.01313639,64.7738,234.2784,51.0040,310.2684,0,U,40967,999,11571,.20846425E-3,.2259E-4,0
SINOD-D 1,2015-058E,2026-07-01T18:51:20.859840,14.95991607,.01200323,64.7729,213.1931,47.3291,313.7860,0,U,40968,999,11884,.30186384E-3,.3745E-4,0
SNAP-3 ALICE,2015-058G,2026-07-01T21:36:54.078624,15.63913387,.00237847,64.7497,52.9372,0.3853,359.7308,0,U,40970,999,11918,.15961544E-2,.155946E-2,0
LMRST-SAT,2015-058H,2026-07-01T11:08:10.865760,14.90644908,.0132935,64.7744,230.9794,53.0698,308.2503,0,U,40971,999,11568,.20349412E-3,.2186E-4,0
SNAP-3 EDDIE,2015-058J,2026-07-01T22:37:57.271872,15.65124102,.00244399,64.7411,43.4040,3.5304,356.6012,0,U,40972,999,12133,.15350428E-2,.157524E-2,0
PROPCUBE 3,2015-058K,2026-07-01T19:10:43.138560,14.94332506,.01248987,64.7665,206.8801,54.1655,307.0985,0,U,40973,999,11698,.2776107E-3,.3312E-4,0
BISONSAT,2015-058L,2026-07-01T22:30:59.090688,15.16591546,.00807389,64.7580,125.9389,41.2150,319.5031,0,U,40974,999,11785,.91534975E-3,.19375E-3,0
SNAP-3 JIMI,2015-058M,2026-07-01T23:12:15.964416,15.02451320,.0106995,64.7632,173.0049,49.4564,311.5810,0,U,40975,999,11644,.54256828E-3,.7997E-4,0
PROPCUBE 1 (FLORA),2015-058N,2026-07-01T21:39:01.494432,14.89280394,.01315909,64.7740,249.6293,55.1897,306.1512,0,U,40976,999,11845,.20399744E-3,.2102E-4,0
SINOD-D 3,2015-058P,2026-07-01T13:34:09.173280,14.94093914,.01201086,64.7709,230.9185,52.4313,308.7637,0,U,40977,999,11690,.26393563E-3,.3082E-4,0
HORYU-4,2016-012D,2026-07-01T19:00:28.190016,16.27112331,.00086595,30.9791,330.1929,346.1826,13.8606,0,U,41340,999,57316,.11150615E-2,.4204222E-1,-.3865025E-5
RAVAN,2016-067B,2026-07-01T03:12:12.873312,15.56066980,.0002065,97.9870,73.3297,331.4556,28.6583,0,U,41849,999,52986,.10967013E-2,.76979E-3,0
CELTEE 1,2016-067C,2026-07-01T21:21:19.436256,15.19825617,.00017628,98.0651,50.4594,125.7705,234.3693,0,U,41850,999,52811,.28895333E-3,.6116E-4,0
OPTICUBE 04,2016-067D,2026-07-01T20:37:53.607936,15.09724177,.00169506,98.0684,35.9081,70.1589,290.1464,0,U,41851,999,52738,.17190973E-3,.2709E-4,0
AEROCUBE 8D,2016-067E,2026-07-01T11:08:50.995104,15.24595526,.00050219,98.0659,53.7221,89.6890,270.4921,0,U,41852,999,52824,.36944352E-3,.9033E-4,0
AEROCUBE 8C,2016-067F,2026-07-01T08:32:27.317472,15.24848091,.00056441,98.0534,50.8147,28.9587,331.1961,0,U,41853,999,52822,.40921263E-3,.10093E-3,0
CORVUS BC2,2017-042X,2026-07-01T22:36:17.961984,15.06385064,.0014146,97.4073,343.7190,64.8133,295.4560,0,U,42846,999,48928,.26509031E-3,.3853E-4,0
CORVUS BC1,2017-042Y,2026-07-01T22:26:11.801184,15.06552379,.0012597,97.4109,344.5357,43.3314,316.8902,0,U,42847,999,48931,.30153797E-3,.4409E-4,0
MAKERSAT 0,2017-073D,2026-07-01T17:49:11.898912,15.32570583,.01048938,97.4602,65.3778,220.3477,138.9950,0,U,43016,999,46869,.56438682E-3,.21095E-3,0
